Origin Time       2026/02/05 03:21:00
Lat.              29.1
Long.             130.4
Depth. (km)       60
Mag.              5.5
Station Code      KGS031
Station Lat.      28.3553
Station Long.     129.3924
Station Height(m) 12
Record Time       2026/02/05 03:21:26
Sampling Freq(Hz) 100Hz
Duration Time(s)  60
Dir.              E-W
Scale Factor      7845(gal)/8223790
Max. Acc. (gal)   1.319
Last Correction   2026/02/05 03:21:27
Memo.             
[...]
    -427     -398     -402     -429     -450     -469     -508     -546 
    -553     -545     -537     -518     -484     -444     -407     -387 
    -382     -391     -415     -448     -468     -469     -488     -542 
    -594     -618     -618     -587     -526     -476     -461     -461 
    -448     -433     -427     -426     -432     -457     -490     -495 
    -465     -423     -403     -406     -410     -437     -499     -540 
    -519     -484     -468     -446     -423     -427     -457     -490 
    -530     -592     -669     -733     -757     -734     -669     -560 
    -423     -319     -283     -313     -410     -564     -714     -776 
    -722     -592     -438     -303     -220     -194     -226     -313 
    -410     -463     -464     -430     -390     -373     -383     -414 
    -473     -546     -600     -625     -638     -661     -680     -679 
    -668     -650     -599     -503     -405     -365     -388     -434 
    -488     -546     -599     -622     -598     -541     -487     -453 
    -423     -399     -390     -384     -402     -471     -571     -649 
    -677     -653     -606     -556     -513     -492     -486     -479 
    -472     -454     -433     -430     -456     -499     -537     -549 
    -548     -530     -496     -469     -454     -432     -413     -427 
    -477     -542     -587     -587     -557     -526     -507     -508 
    -517     -513     -506     -514     -514     -483     -446     -449 
    -480     -503     -529     -584     -654     -711     -734     -718 
    -683     -635     -568     -492     -433     -392     -360     -338 
    -342     -368     -392     -387     -361     -342     -334     -326 
    -317     -306     -317     -364     -417     -448     -457     -454 
    -459     -483     -515     -531     -529     -521     -510     -469 
    -392     -322     -313     -353     -396     -432     -464     -492 
    -522     -565     -621     -652     -627     -579     -538     -502 
    -467     -442     -425     -410     -396     -382     -365     -376 
    -436     -514     -573     -608     -621     -604     -565     -506 
    -430     -353     -295     -265     -268     -298     -338     -386 
    -449     -550     -689     -827     -934     -969     -932     -877 
    -822     -739     -638     -531     -434     -376     -379     -434 
    -514     -572     -595     -607     -592     -526     -452     -392 
    -355     -359     -390     -400     -382     -333     -267     -211 
    -186     -193     -233     -290     -341     -391     -457     -534 
    -588     -610     -621     -642     -670     -680     -649     -602 
    -554     -502     -471     -465     -465     -487     -552     -621 
    -649     -622     -569     -511     -454     -411     -394     -396 
    -403     -414     -445     -507     -568     -577     -540     -503 
    -488     -469     -437     -418     -421     -413     -371     -332 
    -334     -364     -391     -414     -438     -467     -515     -580 
    -625     -633     -610     -567     -511     -448     -383     -329 
    -297     -307     -382     -517     -672     -799     -864     -873 
    -850     -780     -670     -565     -490     -461     -472     -459 
    -387     -310     -278     -274     -267     -261     -283     -338 
    -402     -453     -490     -498     -445     -342     -267     -279 
    -360     -469     -587     -712     -824     -889     -884     -800 
    -664     -541     -464     -441     -473     -511     -500     -469 
    -453     -460     -502     -558     -585     -562     -517     -481 
    -453     -422     -396     -391     -418     -457     -467     -442 
    -418     -422     -436     -438     -422     -391     -363     -353 
    -356     -356     -363     -388     -430     -483     -544     -611 
    -689     -765     -811     -808     -761     -685     -589     -499 
    -450     -445     -441     -417     -406     -442     -477     -450 
    -365     -270     -229     -264     -321     -361     -392     -413 
    -425     -450     -503     -572     -610     -594     -546     -476 
    -378     -299     -286     -341     -446     -564     -668     -745 
    -777     -770     -741     -696     -649     -592     -519     -479 
    -491     -518     -525     -531     -556     -560     -545     -553 
    -561     -529     -467     -417     -398     -387     -361     -340 
    -340     -355     -363     -340     -291     -241     -199     -187 
    -255     -372     -463     -523     -568     -569     -544     -541 
    -567     -592     -615     -641     -652     -652     -662     -687 
    -722     -762     -808     -861     -901     -896     -857     -816 
    -743     -627     -522     -457     -419     -399     -392     -376 
    -338     -310     -322     -353     -379     -383     -367     -369 
    -387     -372     -326     -297     -303     -324     -340     -363 
    -382     -379     -355     -330     -332     -336     -317     -313 
    -332     -337     -337     -361     -409     -454     -487     -531 
    -610     -668     -656     -602     -549     -513     -487     -460 
    -423     -382     -341     -325     -349     -394     -406     -379 
    -357     -355     -351     -340     -353     -409     -480     -523 
    -537     -531     -521     -529     -542     -526     -515     -541 
    -583     -638     -724     -810     -854     -849     -784     -679 
    -599     -562     -541     -529     -540     -571     -625     -697 
    -749     -730     -641     -552     -506     -472     -436     -441 
    -495     -537     -531     -515     -499     -453     -382     -336 
    -341     -375     -430     -549     -719     -868     -951     -955 
    -885     -762     -599     -403     -205      -70      -22      -35 
    -102     -210     -319     -422     -500     -522     -517     -515 
    -494     -440     -384     -348     -329     -318     -315     -317 
    -314     -313     -326     -349     -372     -415     -486     -549 
    -571     -577     -594     -595     -572     -541     -508     -494 
    -502     -494     -457     -414     -386     -373     -378     -386 
    -379     -383     -433     -517     -573     -588     -608     -643 
    -649     -622     -625     -681     -760     -827     -884     -912 
    -885     -808     -703     -587     -511     -503     -510     -472 
    -410     -371     -375     -417     -486     -571     -668     -731 
    -724     -669     -602     -519     -426     -359     -341     -356 
    -375     -400     -433     -459     -472     -481     -483     -460 
    -415     -382     -376     -382     -386     -395     -429     -463 
    -456     -398     -318     -259     -237     -233     -226     -230 
    -265     -326     -390     -436     -459     -457     -425     -387 
    -367     -356     -353     -371     -399     -449     -523     -598 
    -635     -639     -638     -649     -649     -615     -550     -465 
    -375     -310     -302     -342     -406     -476     -538     -585 
    -619     -645     -665     -660     -619     -562     -492     -413 
    -345     -311     -321     -345     -353     -345     -337     -344 
    -364     -361     -336     -336     -357     -386     -427     -472 
    -508     -562     -639     -714     -766     -795     -801     -793 
    -785     -777     -756     -691     -589     -504     -457     -425 
    -406     -434     -508     -588     -638     -643     -612     -567 
    -518     -468     -427     -403     -400     -409     -426     -467 
    -521     -546     -521     -467     -429     -427     -436     -445 
    -467     -503     -550     -596     -614     -584     -530     -511 
    -549     -602     -630     -639     -630     -589     -541     -499 
    -454     -415     -396     -405     -448     -522     -579     -594 
    -591     -580     -529     -421     -325     -322     -409     -521 
    -612     -654     -633     -572     -519     -487     -464     -456 
    -468     -496     -556     -649     -729     -733     -652     -533 
    -426     -353     -334     -400     -533     -652     -710     -700 
    -625     -506     -375     -247     -159     -128     -156     -261 
    -430     -580     -653     -649     -579     -469     -356     -265 
    -217     -197     -182     -172     -174     -217     -284     -330 
    -349     -349     -344     -346     -344     -348     -405     -502 
    -611     -719     -803     -858     -880     -866     -849     -858 
    -888     -916     -922     -895     -842     -791     -754     -720 
    -680     -646     -627     -629     -642     -648     -637     -603 
    -540     -468     -426     -421     -445     -475     -486     -483 
    -468     -434     -388     -342     -283     -202     -133     -110 
    -121     -136     -135     -139     -174     -205     -198     -176 
    -174     -190     -220     -265     -333     -410     -464     -492 
    -515     -538     -552     -557     -552     -500     -409     -292 
    -156      -47      -25      -91     -195     -297     -398     -487 
    -526     -531     -535     -525     -486     -430     -396     -380 
    -337     -284     -292     -372     -477     -589     -685     -735 
    -739     -722     -702     -693     -691     -696     -727     -780 
    -815     -801     -722     -580     -414     -274     -178     -137 
    -160     -253     -423     -637     -843     -985    -1017     -934 
    -764     -564     -368     -151       81      271      398      449 
     394      210      -75     -395     -687     -913    -1042    -1050 
    -976     -896     -835     -781     -753     -785     -870     -969 
   -1059    -1151    -1221    -1239    -1196    -1082     -893     -665 
    -461     -330     -290     -324     -407     -503     -549     -522 
    -449     -344     -198      -17      166      305      383      403 
     355      251      133       18      -97     -193     -271     -371 
    -508     -664     -811     -930    -1005    -1020     -961     -854 
    -753     -688     -666     -722     -873    -1078    -1259    -1362 
   -1378    -1331    -1236    -1121    -1021     -943     -865     -774 
    -675     -544     -359     -156       17      166      282      359 
     421      460      432      344      216       25     -201     -399 
    -560     -687     -766     -788     -758     -706     -662     -630 
    -616     -639     -714     -850    -1043    -1235    -1360    -1399 
   -1350    -1212     -994     -757     -602     -576     -625     -662 
    -639     -550     -413     -251      -93       41      145      214 
     278      351      399      379      297      184       51     -108 
    -252     -340     -391     -441     -464     -446     -436     -442 
    -413     -334     -270     -257     -276     -315     -395     -522 
    -649     -730     -746     -702     -625     -573     -604     -723 
    -874     -966     -946     -823     -616     -371     -183     -120 
    -194     -376     -587     -760     -866     -893     -855     -777 
    -653     -480     -317     -236     -256     -340     -446     -562 
    -643     -626     -515     -352     -199     -156     -280     -529 
    -823    -1084    -1264    -1345    -1289    -1089     -818     -537 
    -279      -72       63      122       99       -6     -191     -432 
    -675     -853     -939     -931     -803     -542     -206      108 
     305      341      230       25     -209     -417     -575     -691 
    -787     -862     -918     -982    -1067    -1129    -1151    -1170 
   -1192    -1167    -1073     -919     -723     -537     -446     -480 
    -573     -658     -706     -691     -612     -511     -432     -352 
    -229      -60      117      295      460      567      594      556 
     457      292       86     -122     -283     -375     -441     -502 
    -494     -383     -211      -67      -20      -83     -233     -438 
    -641     -778     -818     -758     -635     -479     -310     -156 
     -47      -12      -89     -287     -554     -801    -1003    -1182 
   -1314    -1362    -1309    -1179    -1009     -832     -676     -548 
    -436     -333     -243     -170     -143     -171     -252     -379 
    -540     -685     -741     -661     -519     -399     -302     -205 
    -136     -133     -193     -290     -413     -558     -714     -885 
   -1061    -1209    -1318    -1402    -1453    -1444    -1381    -1308 
   -1237    -1140    -1036     -951     -843     -696     -560     -457 
    -386     -329     -268     -211     -160     -125     -145     -203 
    -218     -147      -27       99      230      365      492      600 
     652      581      363       12     -418     -847    -1181    -1378 
   -1441    -1382    -1237    -1054     -885     -792     -805     -903 
   -1047    -1206    -1339    -1385    -1323    -1171     -965     -751 
    -565     -400     -257     -135      -51      -49     -144     -283 
    -395     -440     -423     -359     -251     -145      -82      -48 
     -44      -89     -175     -280     -378     -438     -450     -434 
    -409     -373     -325     -271     -214     -157     -126     -114 
     -94      -99     -160     -244     -324     -392     -433     -454 
    -486     -521     -544     -567     -598     -631     -654     -662 
    -669     -708     -797     -916    -1008    -1017     -943     -819 
    -665     -491     -305     -148      -91     -148     -247     -298 
    -247     -103       74      244      373      425      365      198 
     -24     -226     -353     -403     -398     -361     -352     -438 
    -654     -958    -1260    -1522    -1745    -1873    -1863    -1742 
   -1547    -1283     -976     -692     -492     -360     -279     -245 
    -211     -135      -21       93      191      279      341      324 
     193        6     -174     -353     -548     -750     -916    -1000 
    -997     -938     -853     -760     -666     -595     -584     -625 
    -649     -630     -610     -606     -585     -568     -588     -615 
    -625     -619     -607     -588     -542     -464     -391     -349 
    -313     -268     -256     -295     -371     -454     -518     -533 
    -491     -425     -359     -292     -224     -182     -217     -360 
    -572     -762     -866     -901     -905     -868     -776     -635 
    -452     -238      -51       54       64       -2     -117     -224 
    -301     -356     -415     -500     -607     -724     -834     -908 
    -928     -903     -853     -784     -679     -544     -423     -346 
    -322     -356     -444     -554     -642     -673     -633     -552 
    -484     -469     -506     -576     -656     -715     -754     -780 
    -781     -757     -720     -668     -588     -488     -399     -345 
    -311     -286     -278     -284     -298     -326     -384     -461 
    -527     -595     -680     -738     -749     -761     -791     -784 
    -730     -652     -552     -430     -313     -232     -189     -160 
    -122      -97     -112     -172     -253     -321     -365     -396 
    -396     -342     -234      -91       72      221      313      330 
     278      164       -6     -224     -460     -687     -885    -1027 
   -1080    -1055     -996     -920     -826     -689     -486     -229 
      24      199      220       87     -114     -319     -526     -720 
    -839     -850     -801     -743     -693     -679     -731     -820 
    -901     -967    -1019    -1038    -1021     -986     -930     -855 
    -789     -729     -656     -584     -530     -487     -434     -369 
    -306     -252     -209     -191     -210     -274     -369     -459 
    -527     -580     -588     -521     -426     -391     -434     -492 
    -530     -564     -602     -653     -742     -864     -970    -1040 
   -1092    -1139    -1166    -1156    -1117    -1057     -981     -908 
    -837     -745     -615     -446     -229       24      276      483 
     618      668      645      576      492      391      248       67 
    -125     -319     -499     -635     -711     -730     -726     -738 
    -773     -816     -877     -959    -1008     -955     -792     -583 
    -403     -270     -178     -148     -184     -253     -302     -295 
    -247     -203     -195     -224     -265     -307     -363     -429 
    -473     -480     -457     -423     -409     -437     -495     -545 
    -580     -619     -661     -707     -758     -778     -723     -606 
    -469     -348     -249     -153      -54       22       48       35 
       0      -58     -140     -229     -314     -398     -481     -553 
    -618     -710     -862    -1082    -1328    -1534    -1641    -1624 
   -1514    -1360    -1179     -980     -792     -649     -556     -517 
    -519     -523     -506     -472     -433     -410     -413     -407 
    -348     -237     -124      -63      -48      -48      -82     -197 
    -376     -556     -684     -742     -747     -715     -658     -599 
    -556     -534     -525     -518     -511     -504     -500     -488 
    -457     -396     -317     -241     -203     -206     -226     -252 
    -287     -325     -353     -364     -355     -321     -294     -302 
    -322     -306     -245     -178     -159     -210     -314     -454 
    -595     -684     -734     -791     -849     -877     -854     -768 
    -653     -577     -572     -603     -645     -703     -764     -808 
    -832     -816     -757     -711     -710     -722     -730     -723 
    -703     -707     -756     -823     -873     -874     -827     -754 
    -670     -600     -556     -523     -510     -537     -594     -633 
    -616     -545     -453     -380     -333     -288     -229     -164 
    -129     -136     -156     -159     -159     -176     -201     -226 
    -257     -295     -344     -407     -479     -548     -610     -662 
    -687     -652     -568     -471     -360     -233     -109       -9 
      48       66       68       66       47        0      -56     -103 
    -151     -224     -334     -467     -579     -646     -700     -764 
    -814     -823     -776     -710     -696     -723     -716     -672 
    -615     -553     -492     -442     -419     -449     -514     -577 
    -626     -681     -765     -855     -915     -936     -930     -895 
    -810     -683     -569     -515     -504     -498     -483     -446 
    -378     -314     -299     -306     -307     -313     -337     -361 
    -359     -334     -309     -286     -270     -287     -349     -436 
    -533     -626     -689     -704     -661     -576     -487     -427 
    -395     -369     -348     -352     -391     -448     -460     -392 
    -282     -199     -174     -194     -255     -346     -448     -544 
    -618     -657     -653     -633     -648     -703     -749     -753 
    -720     -662     -591     -544     -548     -594     -664     -735 
    -791     -839     -886     -907     -882     -818     -711     -572 
    -419     -275     -171     -140     -183     -272     -356     -394 
    -399     -386     -348     -297     -255     -229     -214     -209 
    -217     -257     -334     -406     -440     -450     -465     -465 
    -430     -372     -310     -237     -147      -36       55       72 
      20      -49     -116     -195     -299     -417     -515     -561 
    -557     -544     -548     -585     -665     -772     -891    -1028 
   -1158    -1227    -1228    -1170    -1062     -930     -810     -719 
    -656     -608     -562     -525     -517     -531     -546     -564 
